LUCH-5A                 
1 37951U 11074B   26065.25812869 -.00000050  00000+0  00000+0 0  9992
2 37951   8.4918  75.3187 0003890 247.7042 101.0013  1.00275932 52017
NIGCOMSAT 1R            
1 38014U 11077A   26064.36503281  .00000136  00000+0  00000+0 0  9996
2 38014   0.0650 252.7202 0002680  78.1374   6.2020  1.00277927 51916
WGS F4 (USA 233)        
1 38070U 12003A   26064.74336875 -.00000221  00000+0  00000+0 0  9999
2 38070   0.0097 151.3509 0000614 134.3109 233.7866  1.00272851 43112
SES-4                   
1 38087U 12007A   26064.43622072 -.00000178  00000+0  00000+0 0  9995
2 38087   0.0359  66.5072 0002347 256.9214 334.7775  1.00260475 51182
BEIDOU-2 G5             
1 38091U 12008A   26065.09406797  .00000051  00000+0  00000+0 0  9997
2 38091   3.3168  70.3057 0014017 251.3989 294.8001  1.00277131 51334
INTELSAT 22 (IS-22)     
1 38098U 12011A   26065.09666799 -.00000064  00000+0  00000+0 0  9993
2 38098   0.0028 173.3912 0001668 192.4141 264.9179  1.00271310  6154
COSMOS 2479             
1 38101U 12012A   26065.22788190  .00000094  00000+0  00000+0 0  9996
2 38101   8.6139  57.3609 0007037 242.5101 320.7668  1.00340260 51053
SL-12 R/B(2)            
1 38104U 12012D   26065.19208840  .00000111  00000+0  00000+0 0  9994
2 38104   8.6017  57.5713 0012707 297.3754  71.8006  1.00324625 51036
APSTAR-7                
1 38107U 12013A   26065.16886163 -.00000106  00000+0  00000+0 0  9990
2 38107   0.0091 171.8481 0002371 174.5566 314.7604  1.00271830 50774
YAHSAT 1B               
1 38245U 12016A   26065.24350596  .00000121  00000+0  00000+0 0  9997
2 38245   0.0880  91.6596 0003262 259.9703 307.5907  1.00273726 44573
AEHF-2 (USA 235)        
1 38254U 12019A   26065.20155875 -.00000138  00000+0  00000+0 0  9998
2 38254   6.4114  58.2348 0003144 276.8421 244.9087  1.00273275  5952
JCSAT-13                
1 38331U 12023A   26064.96435639 -.00000362  00000+0  00000+0 0  9999
2 38331   0.0290 255.7531 0002336 135.5110 243.5956  1.00271883 50503
VINASAT-2               
1 38332U 12023B   26065.25119534 -.00000334  00000+0  00000+0 0  9995
2 38332   0.0489 320.7117 0002786  43.8230  21.7014  1.00273220 45625
NIMIQ 6                 
1 38342U 12026A   26065.18350191 -.00000179  00000+0  00000+0 0  9994
2 38342   0.0513 279.8792 0002589  64.0571 154.9117  1.00270854 49381
ZHONGXING-2A            
1 38352U 12028A   26065.31584896 -.00000297  00000+0  00000+0 0  9994
2 38352   1.1886  85.3425 0001159 243.4023  47.2538  1.00272127 50262
INTELSAT 19 (IS-19)     
1 38356U 12030A   26064.57475457  .00000000  00000+0  00000+0 0  9991
2 38356   0.0248 145.0136 0003028 212.2815 178.9261  1.00265112 49415
ECHOSTAR 17             
1 38551U 12035A   26065.27511543 -.00000080  00000+0  00000+0 0  9997
2 38551   0.0217 136.4702 0002108 212.6883 166.7683  1.00271576 50032
